STARLINK-36517          
1 67454U 26008K   26037.91671296 -.00080863  00000+0 -13855-2 0  9991
2 67454  42.9999  20.9313 0001175 245.9442 123.8381 15.50606084  4872
STARLINK-36516          
1 67455U 26008L   26037.91671296 -.00077623  00000+0 -13298-2 0  9993
2 67455  43.0001  20.7952 0001342 249.4429 176.2453 15.50592956  4858
STARLINK-36493          
1 67456U 26008M   26037.91671296 -.01239077  00000+0 -22540-1 0  9997
2 67456  43.0001  20.7645 0001431 248.9174 189.2792 15.51442836  4850
STARLINK-36529          
1 67457U 26008N   26037.91671296 -.02065035  00000+0 -31288-1 0  9999
2 67457  43.0002  20.5442 0000709 255.5934 271.4342 15.56952736  4855
STARLINK-36528          
1 67458U 26008P   26037.91671296 -.02060962  00000+0 -24720-1 0  9997
2 67458  43.0006  20.3440 0001147 248.7196 359.7153 15.63521773  4870
STARLINK-36546          
1 67459U 26008Q   26037.91671296 -.02065364  00000+0 -31231-1 0  9994
2 67459  43.0001  20.5278 0000676 260.5263 273.0356 15.57005620  4852
STARLINK-36523          
1 67460U 26008R   26037.91671296 -.02062983  00000+0 -30452-1 0  9994
2 67460  43.0003  20.5012 0000817 255.8209 288.6023 15.57638086  4879
STARLINK-36522          
1 67461U 26008S   26037.91671296 -.00428660  00000+0 -76379-2 0  9990
2 67461  43.0002  20.7571 0001548 251.8703 188.8516 15.50834900  4850
STARLINK-36504          
1 67462U 26008T   26037.93896586  .00261915  00000+0  27870-2 0  9992
2 67462  42.9979  20.2488 0005179 260.6671  99.3608 15.62378189  4853
STARLINK-36505          
1 67463U 26008U   26037.91671296 -.02009839  00000+0 -28391-1 0  9997
2 67463  43.0002  20.4342 0000879 251.9648 319.7968 15.59257150  4851
STARLINK-36421          
1 67464U 26008V   26037.91671296 -.00238204  00000+0 -41657-2 0  9997
2 67464  43.0002  20.7484 0001436 267.2071 176.9331 15.50669370  4851
STARLINK-36437          
1 67465U 26008W   26037.91671296 -.02016737  00000+0 -28075-1 0  9993
2 67465  43.0005  20.4116 0000775 252.6033 327.8255 15.59650863  4853
