CCSDS_OMM_VERS = 2.0
CREATION_DATE  = 
ORIGINATOR     = 

OBJECT_NAME    = STARLINK-36517
OBJECT_ID      = 2026-008K
CENTER_NAME    = EARTH
REF_FRAME      = TEME
TIME_SYSTEM    = UTC
MEAN_ELEMENT_THEORY = SGP/SGP4

EPOCH          = 2026-02-06T22:00:03.999744
MEAN_MOTION    = 15.50606084
ECCENTRICITY   = .00011752
INCLINATION    = 42.9999
RA_OF_ASC_NODE = 20.9313
ARG_OF_PERICENTER = 245.9442
MEAN_ANOMALY   = 123.8381

EPHEMERIS_TYPE = 0
CLASSIFICATION_TYPE = U
NORAD_CAT_ID   = 67454
ELEMENT_SET_NO = 999
REV_AT_EPOCH   = 487
BSTAR          = -.13854811E-2
MEAN_MOTION_DOT = -.80863E-3
MEAN_MOTION_DDOT = 0

CCSDS_OMM_VERS = 2.0
CREATION_DATE  = 
ORIGINATOR     = 

OBJECT_NAME    = STARLINK-36516
OBJECT_ID      = 2026-008L
CENTER_NAME    = EARTH
REF_FRAME      = TEME
TIME_SYSTEM    = UTC
MEAN_ELEMENT_THEORY = SGP/SGP4

EPOCH          = 2026-02-06T22:00:03.999744
MEAN_MOTION    = 15.50592956
ECCENTRICITY   = .00013428
INCLINATION    = 43.0001
RA_OF_ASC_NODE = 20.7952
ARG_OF_PERICENTER = 249.4429
MEAN_ANOMALY   = 176.2453

EPHEMERIS_TYPE = 0
CLASSIFICATION_TYPE = U
NORAD_CAT_ID   = 67455
ELEMENT_SET_NO = 999
REV_AT_EPOCH   = 485
BSTAR          = -.13297901E-2
MEAN_MOTION_DOT = -.77623E-3
MEAN_MOTION_DDOT = 0

CCSDS_OMM_VERS = 2.0
CREATION_DATE  = 
ORIGINATOR     = 

OBJECT_NAME    = STARLINK-36493
OBJECT_ID      = 2026-008M
CENTER_NAME    = EARTH
REF_FRAME      = TEME
TIME_SYSTEM    = UTC
MEAN_ELEMENT_THEORY = SGP/SGP4

EPOCH          = 2026-02-06T22:00:03.999744
MEAN_MOTION    = 15.51442836
ECCENTRICITY   = .00014312
INCLINATION    = 43.0001
RA_OF_ASC_NODE = 20.7645
ARG_OF_PERICENTER = 248.9174
MEAN_ANOMALY   = 189.2792

EPHEMERIS_TYPE = 0
CLASSIFICATION_TYPE = U
NORAD_CAT_ID   = 67456
ELEMENT_SET_NO = 999
REV_AT_EPOCH   = 485
BSTAR          = -.22540225E-1
MEAN_MOTION_DOT = -.1239077E-1
MEAN_MOTION_DDOT = 0

CCSDS_OMM_VERS = 2.0
CREATION_DATE  = 
ORIGINATOR     = 

OBJECT_NAME    = STARLINK-36529
OBJECT_ID      = 2026-008N
CENTER_NAME    = EARTH
REF_FRAME      = TEME
TIME_SYSTEM    = UTC
MEAN_ELEMENT_THEORY = SGP/SGP4

EPOCH          = 2026-02-06T22:00:03.999744
MEAN_MOTION    = 15.56952736
ECCENTRICITY   = .00007098
INCLINATION    = 43.0002
RA_OF_ASC_NODE = 20.5442
ARG_OF_PERICENTER = 255.5934
MEAN_ANOMALY   = 271.4342

EPHEMERIS_TYPE = 0
CLASSIFICATION_TYPE = U
NORAD_CAT_ID   = 67457
ELEMENT_SET_NO = 999
REV_AT_EPOCH   = 485
BSTAR          = -.31287616E-1
MEAN_MOTION_DOT = -.2065035E-1
MEAN_MOTION_DDOT = 0

CCSDS_OMM_VERS = 2.0
CREATION_DATE  = 
ORIGINATOR     = 

OBJECT_NAME    = STARLINK-36528
OBJECT_ID      = 2026-008P
CENTER_NAME    = EARTH
REF_FRAME      = TEME
TIME_SYSTEM    = UTC
MEAN_ELEMENT_THEORY = SGP/SGP4

EPOCH          = 2026-02-06T22:00:03.999744
MEAN_MOTION    = 15.63521773
ECCENTRICITY   = .00011471
INCLINATION    = 43.0006
RA_OF_ASC_NODE = 20.3440
ARG_OF_PERICENTER = 248.7196
MEAN_ANOMALY   = 359.7153

EPHEMERIS_TYPE = 0
CLASSIFICATION_TYPE = U
NORAD_CAT_ID   = 67458
ELEMENT_SET_NO = 999
REV_AT_EPOCH   = 487
BSTAR          = -.24720005E-1
MEAN_MOTION_DOT = -.2060962E-1
MEAN_MOTION_DDOT = 0

CCSDS_OMM_VERS = 2.0
CREATION_DATE  = 
ORIGINATOR     = 

OBJECT_NAME    = STARLINK-36546
OBJECT_ID      = 2026-008Q
CENTER_NAME    = EARTH
REF_FRAME      = TEME
TIME_SYSTEM    = UTC
MEAN_ELEMENT_THEORY = SGP/SGP4

EPOCH          = 2026-02-06T22:00:03.999744
MEAN_MOTION    = 15.57005620
ECCENTRICITY   = .00006761
INCLINATION    = 43.0001
RA_OF_ASC_NODE = 20.5278
ARG_OF_PERICENTER = 260.5263
MEAN_ANOMALY   = 273.0356

EPHEMERIS_TYPE = 0
CLASSIFICATION_TYPE = U
NORAD_CAT_ID   = 67459
ELEMENT_SET_NO = 999
REV_AT_EPOCH   = 485
BSTAR          = -.3123115E-1
MEAN_MOTION_DOT = -.2065364E-1
MEAN_MOTION_DDOT = 0

CCSDS_OMM_VERS = 2.0
CREATION_DATE  = 
ORIGINATOR     = 

OBJECT_NAME    = STARLINK-36523
OBJECT_ID      = 2026-008R
CENTER_NAME    = EARTH
REF_FRAME      = TEME
TIME_SYSTEM    = UTC
MEAN_ELEMENT_THEORY = SGP/SGP4

EPOCH          = 2026-02-06T22:00:03.999744
MEAN_MOTION    = 15.57638086
ECCENTRICITY   = .00008178
INCLINATION    = 43.0003
RA_OF_ASC_NODE = 20.5012
ARG_OF_PERICENTER = 255.8209
MEAN_ANOMALY   = 288.6023

EPHEMERIS_TYPE = 0
CLASSIFICATION_TYPE = U
NORAD_CAT_ID   = 67460
ELEMENT_SET_NO = 999
REV_AT_EPOCH   = 487
BSTAR          = -.3045161E-1
MEAN_MOTION_DOT = -.2062983E-1
MEAN_MOTION_DDOT = 0

CCSDS_OMM_VERS = 2.0
CREATION_DATE  = 
ORIGINATOR     = 

OBJECT_NAME    = STARLINK-36522
OBJECT_ID      = 2026-008S
CENTER_NAME    = EARTH
REF_FRAME      = TEME
TIME_SYSTEM    = UTC
MEAN_ELEMENT_THEORY = SGP/SGP4

EPOCH          = 2026-02-06T22:00:03.999744
MEAN_MOTION    = 15.50834900
ECCENTRICITY   = .00015481
INCLINATION    = 43.0002
RA_OF_ASC_NODE = 20.7571
ARG_OF_PERICENTER = 251.8703
MEAN_ANOMALY   = 188.8516

EPHEMERIS_TYPE = 0
CLASSIFICATION_TYPE = U
NORAD_CAT_ID   = 67461
ELEMENT_SET_NO = 999
REV_AT_EPOCH   = 485
BSTAR          = -.76379238E-2
MEAN_MOTION_DOT = -.42866E-2
MEAN_MOTION_DDOT = 0

CCSDS_OMM_VERS = 2.0
CREATION_DATE  = 
ORIGINATOR     = 

OBJECT_NAME    = STARLINK-36504
OBJECT_ID      = 2026-008T
CENTER_NAME    = EARTH
REF_FRAME      = TEME
TIME_SYSTEM    = UTC
MEAN_ELEMENT_THEORY = SGP/SGP4

EPOCH          = 2026-02-06T22:32:06.650304
MEAN_MOTION    = 15.62378189
ECCENTRICITY   = .00051791
INCLINATION    = 42.9979
RA_OF_ASC_NODE = 20.2488
ARG_OF_PERICENTER = 260.6671
MEAN_ANOMALY   = 99.3608

EPHEMERIS_TYPE = 0
CLASSIFICATION_TYPE = U
NORAD_CAT_ID   = 67462
ELEMENT_SET_NO = 999
REV_AT_EPOCH   = 485
BSTAR          = .27870409E-2
MEAN_MOTION_DOT = .261915E-2
MEAN_MOTION_DDOT = 0

CCSDS_OMM_VERS = 2.0
CREATION_DATE  = 
ORIGINATOR     = 

OBJECT_NAME    = STARLINK-36505
OBJECT_ID      = 2026-008U
CENTER_NAME    = EARTH
REF_FRAME      = TEME
TIME_SYSTEM    = UTC
MEAN_ELEMENT_THEORY = SGP/SGP4

EPOCH          = 2026-02-06T22:00:03.999744
MEAN_MOTION    = 15.59257150
ECCENTRICITY   = .00008797
INCLINATION    = 43.0002
RA_OF_ASC_NODE = 20.4342
ARG_OF_PERICENTER = 251.9648
MEAN_ANOMALY   = 319.7968

EPHEMERIS_TYPE = 0
CLASSIFICATION_TYPE = U
NORAD_CAT_ID   = 67463
ELEMENT_SET_NO = 999
REV_AT_EPOCH   = 485
BSTAR          = -.28391413E-1
MEAN_MOTION_DOT = -.2009839E-1
MEAN_MOTION_DDOT = 0

CCSDS_OMM_VERS = 2.0
CREATION_DATE  = 
ORIGINATOR     = 

OBJECT_NAME    = STARLINK-36421
OBJECT_ID      = 2026-008V
CENTER_NAME    = EARTH
REF_FRAME      = TEME
TIME_SYSTEM    = UTC
MEAN_ELEMENT_THEORY = SGP/SGP4

EPOCH          = 2026-02-06T22:00:03.999744
MEAN_MOTION    = 15.50669370
ECCENTRICITY   = .00014363
INCLINATION    = 43.0002
RA_OF_ASC_NODE = 20.7484
ARG_OF_PERICENTER = 267.2071
MEAN_ANOMALY   = 176.9331

EPHEMERIS_TYPE = 0
CLASSIFICATION_TYPE = U
NORAD_CAT_ID   = 67464
ELEMENT_SET_NO = 999
REV_AT_EPOCH   = 485
BSTAR          = -.41656858E-2
MEAN_MOTION_DOT = -.238204E-2
MEAN_MOTION_DDOT = 0

CCSDS_OMM_VERS = 2.0
CREATION_DATE  = 
ORIGINATOR     = 

OBJECT_NAME    = STARLINK-36437
OBJECT_ID      = 2026-008W
CENTER_NAME    = EARTH
REF_FRAME      = TEME
TIME_SYSTEM    = UTC
MEAN_ELEMENT_THEORY = SGP/SGP4

EPOCH          = 2026-02-06T22:00:03.999744
MEAN_MOTION    = 15.59650863
ECCENTRICITY   = .00007752
INCLINATION    = 43.0005
RA_OF_ASC_NODE = 20.4116
ARG_OF_PERICENTER = 252.6033
MEAN_ANOMALY   = 327.8255

EPHEMERIS_TYPE = 0
CLASSIFICATION_TYPE = U
NORAD_CAT_ID   = 67465
ELEMENT_SET_NO = 999
REV_AT_EPOCH   = 485
BSTAR          = -.28074559E-1
MEAN_MOTION_DOT = -.2016737E-1
MEAN_MOTION_DDOT = 0

